{"fetched_at":"2026-04-16T17:13:58Z","count":4884,"tles":[{"name":"TRANSPORTER-16 OBJECT BW","line1":"1 68484U 26067BW  26105.86667851  .00000642  00000+0  69092-4 0  9993","line2":"2 68484  97.7576  65.1102 0002523 128.9871 231.1572 14.91820185  2435","category":"Other"}]}