{
  "norad_id": 68484,
  "name": "TRANSPORTER-16 OBJECT BW",
  "history": [
    {
      "epoch": "2026-04-15T20:48:01.023264Z",
      "apogee_km": 594.0187570736498,
      "perigee_km": 590.501494683931,
      "latitude_deg": -7.544017280752015e-05,
      "longitude_deg": -90.91664608976647,
      "height_km": 596.4054447339643,
      "semi_major_axis_km": 6970.39712587879,
      "eccentricity": 0.0002523,
      "inclination_deg": 97.7576,
      "raan_deg": 65.1102,
      "arg_perigee_deg": 128.9871,
      "mean_anomaly_deg": 231.1572,
      "mean_motion_rev_day": 14.91820185
    }
  ]
}